TDRS 13                 
1 42915U 17047A   26192.84786384 -.00000097  00000+0  00000+0 0  9993
2 42915   3.4582   3.3230 0014748 111.2237 109.0290  1.00271492 32593
AMAZONAS 5              
1 42934U 17053A   26190.55680899 -.00000270  00000+0  00000+0 0  9994
2 42934   0.0333 322.5996 0001166 111.8422 352.5077  1.00271348 32260
INTELSAT 37E (IS-37E)   
1 42950U 17059A   26192.84656384 -.00000137  00000+0  00000+0 0  9996
2 42950   0.0138  61.5341 0002491  56.4889  98.4865  1.00270571 32312
QZS-4 (MICHIBIKI-4)     
1 42965U 17062A   26192.89013762 -.00000326  00000+0  00000+0 0  9998
2 42965  40.0939 343.1714 0747476 268.4974 137.4815  1.00290892 32051
ALCOMSAT 1              
1 43039U 17078A   26192.70264008 -.00000181  00000+0  00000+0 0  9998
2 43039   0.0366  88.8433 0002136  26.2557  42.6707  1.00270997 31543
SBIRS GEO-3 (USA 282)   
1 43162U 18009A   26192.81854925  .00000131  00000+0  00000+0 0  9999
2 43162   2.2016  13.2267 0001735  98.8302 312.9496  1.00272482 31099
AL YAH 3                
1 43174U 18012A   26192.84613051 -.00000153  00000+0  00000+0 0  9997
2 43174   1.6127  82.8094 0003509  28.2325 103.2059  1.00271020 31094
SES-14                  
1 43175U 18012B   26192.84064934 -.00000274  00000+0  00000+0 0  9992
2 43175   0.0124  24.3453 0000764  96.2975  64.2297  1.00271620  7270
GOES 17                 
1 43226U 18022A   26192.83232931 -.00000180  00000+0  00000+0 0  9999
2 43226   0.9976  85.3070 0000543  96.7368 317.8350  1.00273239 30674
HISPASAT 30W-6          
1 43228U 18023A   26192.77286953 -.00000211  00000+0  00000+0 0  9993
2 43228   0.0399  46.0894 0005088  42.5585  89.2866  1.00273059 30653
SUPERBIRD-B3            
1 43271U 18033A   26192.73958936 -.00000088  00000+0  00000+0 0  9997
2 43271   0.0155 353.3699 0000978 128.1783 236.3602  1.00270618 30305
IRNSS-1I                
1 43286U 18035A   26187.83739038  .00000079  00000+0  00000+0 0  9999
2 43286  28.7973  73.8917 0018087 180.4002  27.0525  1.00279237 30279
USA 283                 
1 43339U 18036A   26190.45282684 -.00000304  00000+0  00000+0 0  9993
2 43339   0.0041  71.7274 0000871 148.0481   4.7270  1.00270107 25510
COSMOS 2526             
1 43432U 18037A   26192.69016442 -.00000339  00000+0  00000+0 0  9991
2 43432   0.0311  84.8582 0000376 177.6499  43.6136  1.00273987 30202
APSTAR-6C               
1 43450U 18041A   26192.87660484 -.00000314  00000+0  00000+0 0  9990
2 43450   0.0234 351.2389 0000577 293.2146  94.9099  1.00270018 30051
BANGABANDHUSAT-1        
1 43463U 18044A   26192.80234250 -.00000358  00000+0  00000+0 0  9996
2 43463   0.0141  91.6765 0001651  31.6350 214.3307  1.00271833 29953
SES-12                  
1 43488U 18049A   26192.79757581 -.00000265  00000+0  00000+0 0  9990
2 43488   0.0111   6.8449 0000945 244.5299  60.4483  1.00269528 29667
BEIDOU-2 IGSO-7         
1 43539U 18057A   26182.89122331 -.00000033  00000+0  00000+0 0  9998
2 43539  55.1981 162.9292 0104946 237.8611 308.6338  1.00246939 29273
TELKOM 4 (MERAH PUTIH)  
1 43587U 18064A   26192.87123148 -.00000340  00000+0  00000+0 0  9996
2 43587   0.0145  75.2251 0000991  40.3587 235.8341  1.00270559 29126
TELSTAR 18V             
1 43611U 18069A   26192.87738485 -.00000290  00000+0  00000+0 0  9999
2 43611   0.0145 341.1932 0001599 131.4065 271.0337  1.00270282 28885
AZERSPACE 2 (IS-38)     
1 43632U 18074A   26192.21739435  .00000000  00000+0  00000+0 0  9990
2 43632   0.0273  38.7820 0001235  92.2329 281.4917  1.00270656 28681
HORIZONS-3E             
1 43633U 18074B   26192.74097604 -.00000026  00000+0  00000+0 0  9993
2 43633   0.0414 220.4493 0000856  61.4867  83.4617  1.00271927 28586
BEIDOU-3 G1             
1 43683U 18085A   26192.73915603 -.00000107  00000+0  00000+0 0  9997
2 43683   2.9269  96.7211 0008090 355.5910 263.3755  1.00272743 28305
